     2              NAVIGATION DATA                         RINEX VERSION / TYPE
CCRINEXN V1.6.0 UX  CDDIS               02-APR-25 23:31     PGM / RUN BY / DATE 
IGS BROADCAST EPHEMERIS FILE                                COMMENT             
    0.3353D-07  0.7451D-08 -0.1788D-06  0.0000D+00          ION ALPHA           
    0.1372D+06  0.0000D+00 -0.3277D+06  0.2621D+06          ION BETA            
    0.000000000000D+00 0.000000000000D+00   405504     2360 DELTA-UTC: A0,A1,T,W
    18                                                      LEAP SECONDS        
                                                            END OF HEADER       
15 25  4  1 12  0  0.0 0.280504114926D-03 0.420641299570D-11 0.000000000000D+00
    0.107000000000D+03 0.164375000000D+02 0.534665128091D-08-0.122482166505D+01
    0.130012631416D-05 0.161735676229D-01 0.689178705216D-05 0.515377519035D+04
    0.216000000000D+06-0.484287738800D-07-0.155796598518D+01 0.420957803726D-06
    0.938182438333D+00 0.235187500000D+03 0.140207894878D+01-0.851499754097D-08
    0.612525514146D-09 0.100000000000D+01 0.236000000000D+04 0.000000000000D+00
    0.200000000000D+01 0.000000000000D+00-0.102445483208D-07 0.107000000000D+03
    0.208818000000D+06 0.400000000000D+01 0.000000000000D+00 0.000000000000D+00
16 25  4  1 12  0  0.0-0.173095613718D-04 0.886757334229D-11 0.000000000000D+00
    0.240000000000D+02 0.102593750000D+03 0.439054002647D-08 0.836051045042D+00
    0.571087002754D-05 0.144964652136D-01 0.119078904390D-04 0.515372574425D+04
    0.216000000000D+06-0.182539224625D-06 0.784437691847D+00 0.113621354103D-06
    0.960098576462D+00 0.150625000000D+03 0.883165917828D+00-0.810140888477D-08
   -0.268582616115D-09 0.100000000000D+01 0.236000000000D+04 0.000000000000D+00
    0.200000000000D+01 0.000000000000D+00-0.102445483208D-07 0.240000000000D+02
    0.208818000000D+06 0.400000000000D+01 0.000000000000D+00 0.000000000000D+00
17 25  4  1 12  0  0.0 0.349940732122D-03-0.187583282241D-10 0.000000000000D+00
    0.440000000000D+02 0.677812500000D+02 0.470448167483D-08-0.168549745162D+00
    0.357441604137D-05 0.130842896178D-01 0.227615237236D-05 0.515365787315D+04
    0.216000000000D+06-0.173225998878D-06 0.180473101703D+01-0.689178705216D-07
    0.963881002358D+00 0.339656250000D+03-0.122305802660D+01-0.866428947386D-08
    0.507163982558D-10 0.100000000000D+01 0.236000000000D+04 0.000000000000D+00
    0.200000000000D+01 0.000000000000D+00-0.111758708954D-07 0.440000000000D+02
    0.208818000000D+06 0.400000000000D+01 0.000000000000D+00 0.000000000000D+00
18 25  4  1 12  0  0.0-0.641312450170D-03 0.363797880709D-11 0.000000000000D+00
    0.110000000000D+03-0.118906250000D+03 0.417195949314D-08-0.219333075943D+01
   -0.617466866970D-05 0.491815747227D-02 0.428594648838D-05 0.515369983673D+04
    0.216000000000D+06-0.447034835815D-07 0.281213600761D+01 0.186264514923D-07
    0.974040558802D+00 0.304875000000D+03-0.294706012868D+01-0.811140930133D-08
   -0.301798285396D-09 0.100000000000D+01 0.236000000000D+04 0.000000000000D+00
    0.200000000000D+01 0.000000000000D+00-0.838190317154D-08 0.878000000000D+03
    0.212092000000D+06 0.400000000000D+01 0.000000000000D+00 0.000000000000D+00
19 25  4  1 12  0  0.0 0.614285003394D-03 0.397903932026D-11 0.000000000000D+00
    0.290000000000D+02 0.705625000000D+02 0.471126767178D-08 0.170214769470D+01
    0.377744436264D-05 0.103325190721D-01 0.106357038021D-05 0.515362458229D+04
    0.216000000000D+06 0.115483999252D-06 0.184889766078D+01 0.141561031342D-06
    0.963103427752D+00 0.358000000000D+03 0.273466397401D+01-0.843213694663D-08
   -0.147506144223D-09 0.100000000000D+01 0.236000000000D+04 0.000000000000D+00
    0.200000000000D+01 0.000000000000D+00-0.153668224812D-07 0.290000000000D+02
    0.209118000000D+06 0.400000000000D+01 0.000000000000D+00 0.000000000000D+00
20 25  4  1 12  0  0.0 0.365303829312D-03-0.227373675443D-12 0.000000000000D+00
    0.850000000000D+02-0.769062500000D+02 0.418446001384D-08-0.191851353317D+01
   -0.401586294174D-05 0.357465469278D-02 0.111814588308D-04 0.515374367523D+04
    0.216000000000D+06 0.484287738800D-07-0.262521049433D+01-0.104308128357D-06
    0.958082653405D+00 0.161968750000D+03-0.227389572370D+01-0.778568144774D-08
    0.250010413937D-09 0.100000000000D+01 0.236000000000D+04 0.000000000000D+00
    0.200000000000D+01 0.000000000000D+00-0.838190317154D-08 0.850000000000D+02
    0.211986000000D+06 0.400000000000D+01 0.000000000000D+00 0.000000000000D+00
21 25  4  1 12  0  0.0 0.944873318076D-04-0.261479726760D-11 0.000000000000D+00
    0.360000000000D+02-0.827812500000D+02 0.480127142080D-08-0.106453693012D+00
   -0.469014048576D-05 0.257101835450D-01 0.320933759212D-05 0.515279256630D+04
    0.216000000000D+06 0.385567545891D-06 0.269815227440D+01-0.273808836937D-06
    0.960309331755D+00 0.318906250000D+03-0.408686659463D+00-0.879608067778D-08
   -0.375729936374D-09 0.100000000000D+01 0.236000000000D+04 0.000000000000D+00
    0.200000000000D+01 0.630000000000D+02-0.102445483208D-07 0.360000000000D+02
    0.212076000000D+06 0.400000000000D+01 0.000000000000D+00 0.000000000000D+00
22 25  4  1 12  0  0.0-0.101468991488D-03-0.795807864051D-12 0.000000000000D+00
    0.260000000000D+02 0.980000000000D+02 0.448661545697D-08 0.335808741611D+00
    0.512972474098D-05 0.132033743430D-01 0.104866921902D-04 0.515367115784D+04
    0.216000000000D+06-0.633299350738D-07 0.787750055832D+00-0.150874257088D-06
    0.959476163336D+00 0.182281250000D+03-0.106447496384D+01-0.818641242551D-08
   -0.485734518507D-10 0.100000000000D+01 0.236000000000D+04 0.000000000000D+00
    0.200000000000D+01 0.000000000000D+00-0.111758708954D-07 0.260000000000D+02
    0.208818000000D+06 0.400000000000D+01 0.000000000000D+00 0.000000000000D+00
23 25  4  1 12  0  0.0 0.451593659818D-03 0.693489710102D-11 0.000000000000D+00
    0.120000000000D+03-0.798437500000D+02 0.356479134501D-08 0.298578970279D+01
   -0.393949449062D-05 0.506647815928D-02 0.122226774692D-04 0.515364488602D+04
    0.216000000000D+06-0.577419996262D-07-0.246872294907D+01-0.335276126862D-07
    0.983738308581D+00 0.153875000000D+03-0.284300013830D+01-0.744959601986D-08
    0.431803700643D-09 0.100000000000D+01 0.236000000000D+04 0.000000000000D+00
    0.200000000000D+01 0.000000000000D+00-0.838190317154D-08 0.120000000000D+03
    0.208818000000D+06 0.400000000000D+01 0.000000000000D+00 0.000000000000D+00
25 25  4  1 12  0  0.0 0.491579528898D-03-0.102318153950D-11 0.000000000000D+00
    0.600000000000D+02 0.111125000000D+03 0.443697053192D-08 0.245550506729D+01
    0.548735260963D-05 0.123436852591D-01 0.116080045700D-04 0.515365904808D+04
    0.216000000000D+06 0.316649675369D-07 0.676925257226D+00-0.203028321266D-06
    0.949014634269D+00 0.143968750000D+03 0.112381426829D+01-0.770174938020D-08
   -0.221437795202D-09 0.100000000000D+01 0.236000000000D+04 0.000000000000D+00
    0.200000000000D+01 0.000000000000D+00 0.558793544769D-08 0.600000000000D+02
    0.214968000000D+06 0.400000000000D+01 0.000000000000D+00 0.000000000000D+00
26 25  4  1 12  0  0.0-0.163052696735D-03-0.194404492504D-10 0.000000000000D+00
    0.350000000000D+02 0.777187500000D+02 0.507378277199D-08 0.159619943988D+01
    0.423751771450D-05 0.988574733492D-02 0.124536454678D-04 0.515381244469D+04
    0.216000000000D+06-0.212341547012D-06 0.608700328800D+00 0.115483999252D-06
    0.929821845418D+00 0.124937500000D+03 0.624527143571D+00-0.825712965688D-08
   -0.342514267094D-09 0.100000000000D+01 0.236000000000D+04 0.000000000000D+00
    0.200000000000D+01 0.000000000000D+00 0.651925802231D-08 0.350000000000D+02
    0.208818000000D+06 0.400000000000D+01 0.000000000000D+00 0.000000000000D+00
27 25  4  1 12  0  0.0-0.286335125566D-04 0.795807864051D-12 0.000000000000D+00
    0.340000000000D+02 0.928437500000D+02 0.496199240119D-08-0.101017441153D+00
    0.501051545143D-05 0.134936989052D-01 0.244751572609D-05 0.515369002724D+04
    0.216000000000D+06-0.242143869400D-07 0.173429382293D+01 0.145286321640D-06
    0.957167200233D+00 0.327093750000D+03 0.837381294006D+00-0.877536552920D-08
    0.742888087128D-10 0.100000000000D+01 0.236000000000D+04 0.000000000000D+00
    0.200000000000D+01 0.000000000000D+00 0.232830643654D-08 0.340000000000D+02
    0.210558000000D+06 0.400000000000D+01 0.000000000000D+00 0.000000000000D+00
29 25  4  1 12  0  0.0-0.522509682924D-03 0.397903932026D-11 0.000000000000D+00
    0.150000000000D+02 0.833750000000D+02 0.463626454760D-08-0.200796191533D+00
    0.419281423092D-05 0.313264434226D-02 0.162608921528D-05 0.515367630959D+04
    0.216000000000D+06 0.260770320892D-07 0.182056729103D+01-0.100582838059D-06
    0.966424771128D+00 0.351562500000D+03 0.261703771669D+01-0.849178228825D-08
    0.439304013061D-10 0.100000000000D+01 0.236000000000D+04 0.000000000000D+00
    0.200000000000D+01 0.000000000000D+00-0.977888703346D-08 0.150000000000D+02
    0.208823000000D+06 0.400000000000D+01 0.000000000000D+00 0.000000000000D+00
30 25  4  1 12  0  0.0-0.180518720299D-03 0.920863385545D-11 0.000000000000D+00
    0.330000000000D+02-0.364687500000D+02 0.535450875107D-08 0.311075757353D+01
   -0.195391476154D-05 0.758206332102D-02 0.843219459057D-05 0.515370770836D+04
    0.216000000000D+06-0.670552253723D-07-0.353030874479D+00-0.154599547386D-06
    0.935921535014D+00 0.206843750000D+03-0.239982437320D+01-0.823855745470D-08
   -0.490377569051D-09 0.100000000000D+01 0.236000000000D+04 0.000000000000D+00
    0.200000000000D+01 0.000000000000D+00 0.372529029846D-08 0.330000000000D+02
    0.210708000000D+06 0.400000000000D+01 0.000000000000D+00 0.000000000000D+00
